STARLINK-11206 [DTC]    
1 60312U 24133M   26068.46070949  .00002621  00000+0  26489-4 0  9999
2 60312  53.1576 147.6766 0001285  96.0260 264.0904 15.69705675 93690
ISS OBJECT XW           
1 66910U 98067XW  26068.25909918  .00146604  00000+0  12540-2 0  9991
2 66910  51.6252  67.7624 0005143  83.0730 277.0851 15.68462358 15117
