[{"OBJECT_NAME":"STARLINK-11206 [DTC]","OBJECT_ID":"2024-133M","EPOCH":"2026-03-09T11:03:25.299936","MEAN_MOTION":15.69705675,"ECCENTRICITY":0.00012852,"INCLINATION":53.1576,"RA_OF_ASC_NODE":147.6766,"ARG_OF_PERICENTER":96.026,"MEAN_ANOMALY":264.0904,"EPHEMERIS_TYPE":0,"CLASSIFICATION_TYPE":"U","NORAD_CAT_ID":60312,"ELEMENT_SET_NO":999,"REV_AT_EPOCH":9369,"BSTAR":2.6489282e-5,"MEAN_MOTION_DOT":2.621e-5,"MEAN_MOTION_DDOT":0},{"OBJECT_NAME":"ISS OBJECT XW","OBJECT_ID":"1998-067XW","EPOCH":"2026-03-09T06:13:06.169152","MEAN_MOTION":15.68462358,"ECCENTRICITY":0.00051435,"INCLINATION":51.6252,"RA_OF_ASC_NODE":67.7624,"ARG_OF_PERICENTER":83.073,"MEAN_ANOMALY":277.0851,"EPHEMERIS_TYPE":0,"CLASSIFICATION_TYPE":"U","NORAD_CAT_ID":66910,"ELEMENT_SET_NO":999,"REV_AT_EPOCH":1511,"BSTAR":0.0012539699,"MEAN_MOTION_DOT":0.00146604,"MEAN_MOTION_DDOT":0}]
